COSMOS 2534 [GLONASS-M] 
1 44299U 19030A   26188.41866333  .00000121  00000+0  00000+0 0  9992
2 44299  64.3703 191.9350 0013567 275.0317 265.0222  2.13102315 55353
BEIDOU-3 IGSO-2         
1 44337U 19035A   26188.31136924 -.00000073  00000+0  00000+0 0  9992
2 44337  55.2503 158.6862 0039645 216.4337 141.1936  1.00260336 25869
NAVSTAR 78 (USA 293)    
1 44506U 19056A   26188.33586402 -.00000071  00000+0  00000+0 0  9993
2 44506  55.6265 330.3431 0063087 198.0120 338.1730  2.00569980 50472
BEIDOU-3 M24            
1 44542U 19061A   26188.10973604  .00000118  00000+0  00000+0 0  9999
2 44542  54.3974 182.0558 0008560 359.0276   0.9778  1.86229376 46165
BEIDOU-3 M23            
1 44543U 19061B   26188.40781488  .00000120  00000+0  00000+0 0  9993
2 44543  54.3961 182.0144 0005855 339.2877 132.0314  1.86227446 46174
EUTELSAT 5 WEST B       
1 44624U 19067A   26188.35788049 -.00000027  00000+0  00000+0 0  9990
2 44624   0.0653 340.0271 0003178 127.3804 301.7525  1.00271358 24632
BEIDOU-3 M22            
1 44793U 19078A   26186.33900275 -.00000058  00000+0  00000+0 0  9996
2 44793  53.9186 299.1896 0005914  49.8831 310.1966  1.86227646 44980
BEIDOU-3 M21            
1 44794U 19078B   26186.47887781 -.00000058  00000+0  00000+0 0  9998
2 44794  53.8912 299.1453 0003864  48.4464 311.6147  1.86228113 44993
COSMOS 2544 [GLONASS-M] 
1 44850U 19088A   26188.20757394 -.00000019  00000+0  00000+0 0  9998
2 44850  65.5757  73.0630 0012575 256.0344 103.8880  2.13103181 51140
BEIDOU-3 M19            
1 44864U 19090A   26188.06161581 -.00000043  00000+0  00000+0 0  9994
2 44864  56.5756  62.1346 0017091 297.4421 241.2360  1.86231712 44604
BEIDOU-3 M20            
1 44865U 19090B   26187.92858764 -.00000042  00000+0  00000+0 0  9994
2 44865  56.5768  62.1737 0014943 312.1641 226.9103  1.86231636 44581
BEIDOU-3 G2             
1 45344U 20017A   26188.51736440 -.00000127  00000+0  00000+0 0  9994
2 45344   2.9027  47.6202 0002388  53.0238  91.1692  1.00270621 23467
COSMOS 2545 [GLONASS-M] 
1 45358U 20018A   26188.40252837 -.00000050  00000+0  00000+0 0  9996
2 45358  64.3418 311.7088 0009121 229.7845 130.1493  2.13102794 49093
BEIDOU-3 G3             
1 45807U 20040A   26188.52342818 -.00000340  00000+0  00000+0 0  9994
2 45807   2.4940  67.4772 0002094 333.7421 183.2386  1.00268577 22276
NAVSTAR 79 (USA 304)    
1 45854U 20041A   26187.18030691 -.00000055  00000+0  00000+0 0  9994
2 45854  56.6823  28.2076 0064724 204.5515 154.8185  2.00558250 44410
GALAXY 30 (G-30)        
1 46114U 20056C   26187.76375412  .00000052  00000+0  00000+0 0  9993
2 46114   0.0206  38.7570 0002186  67.2773 328.6685  1.00270907 21484
COSMOS 2547 [GLONASS-K] 
1 46805U 20075A   26187.65368286  .00000115  00000+0  00000+0 0  9990
2 46805  64.6011 191.8258 0009443 239.8670 120.0683  2.13100180 44321
NAVSTAR 80 (USA 309)    
1 46826U 20078A   26188.44572156  .00000100  00000+0  00000+0 0  9991
2 46826  53.9783 209.9572 0074325 207.6315 322.4373  2.00564900 41917
NAVSTAR 81 (USA 319)    
1 48859U 21054A   26188.45135924 -.00000072  00000+0  00000+0 0  9992
2 48859  55.1638 331.6461 0026195 228.4720 132.0146  2.00567664 37166
QZS-1R (MICHIBIKI-1R)   
1 49336U 21096A   26186.60108073 -.00000258  00000+0  00000+0 0  9995
2 49336  37.4964  79.3119 0755511 272.0883 281.1819  1.00249302 17193
GSAT0223 (GALILEO 27)   
1 49809U 21116A   26187.93556736 -.00000071  00000+0  00000+0 0  9996
2 49809  57.1545 341.1430 0002106 191.8954 167.9747  1.70476145 28513
GSAT0224 (GALILEO 28)   
1 49810U 21116B   26188.35016565 -.00000071  00000+0  00000+0 0  9996
2 49810  57.1546 341.1306 0001631 175.8676 191.0805  1.70476148 28553
COSMOS 2557 [GLONASS-K] 
1 52984U 22075A   26188.28712434 -.00000050  00000+0  00000+0 0  9994
2 52984  64.2858 313.7775 0010598 272.6020  87.2887  2.13102498 31147
COSMOS 2559 [GLONASS-K] 
1 54031U 22130A   26187.16828881 -.00000047  00000+0  00000+0 0  9997
2 54031  64.2589 313.8996 0012939 180.0995 179.9129  2.13101697 29092
COSMOS 2564 [GLONASS-M] 
1 54377U 22161A   26187.94997608  .00000118  00000+0  00000+0 0  9992
2 54377  64.7434 192.0556 0012256 225.0919 134.8385  2.13102000 28054
NAVSTAR 82 (USA 343)    
1 55268U 23009A   26188.14393455  .00000076  00000+0  00000+0 0  9990
2 55268  55.1244 147.7348 0006222 319.7654 217.2991  2.00570128 25643
BEIDOU-3 G4             
1 56564U 23066A   26187.31732966 -.00000268  00000+0  00000+0 0  9999
2 56564   0.4680 336.2679 0005056 178.9368  23.3032  1.00266978 11587
NVS-01 (IRNSS-1J)       
1 56759U 23076A   26188.52715485 -.00000319  00000+0  00000+0 0  9994
2 56759   2.1209 243.4443 0003270   7.7256 353.6524  1.00268826 11329
COSMOS 2569 [GLONASS-K2]
1 57517U 23114A   26187.96228891 -.00000019  00000+0  00000+0 0  9994
2 57517  65.3132  71.9538 0009958 296.3951  63.5663  2.13103728 22680
BEIDOU-3 M28            
1 58654U 23207A   26186.01893255 -.00000039  00000+0  00000+0 0  9999
2 58654  55.7683  61.7016 0002708 358.6416   1.4251  1.86229759 17173
BEIDOU-3 M26            
1 58655U 23207B   26187.96425191 -.00000044  00000+0  00000+0 0  9991
2 58655  55.7724  61.6226 0002296 323.9570  36.0904  1.86229712 17190
